LANDSAT 9               
1 49260U 21088A   24115.05935101  .00001461  00000+0  33395-3 0  9994
2 49260  98.1896 185.5875 0001147  84.8348 275.2981 14.57159090136804
